NORAD_CAT_ID,OBJECT_NAME,OBJECT_TYPE,EPOCH,MEAN_MOTION,ECCENTRICITY,INCLINATION,RA_OF_ASC_NODE,ARG_OF_PERICENTER,MEAN_ANOMALY,BSTAR,MEAN_MOTION_DOT,MEAN_MOTION_DDOT,TLE_LINE0,TLE_LINE1,TLE_LINE2,SEMIMAJOR_AXIS,PERIOD,APOGEE,PERIGEE,DECAYED
51775.0,STARLINK-3620,PAYLOAD,2023-10-24 07:47:49,15.08851248,0.0001505,53.2165,272.8727,78.4921,281.624,0.00083677,0.00013058,0.0,0 STARLINK-3620,1 51775U 22017H   23297.32487286  .00013058  00000-0  83677-3 0  9991,2 51775  53.2165 272.8727 0001505  78.4921 281.6240 15.08851248 93115,6917.846,95.437,540.752,538.67,0.0
51775.0,STARLINK-3620,PAYLOAD,2023-10-25 07:38:36,15.08849276,0.0001468,53.2152,268.4125,84.0451,276.0708,0.00054299,8.366e-05,0.0,0 STARLINK-3620,1 51775U 22017H   23298.31847307  .00008366  00000-0  54299-3 0  9999,2 51775  53.2152 268.4125 0001468  84.0451 276.0708 15.08849276 93264,6917.852,95.437,540.733,538.701,0.0
51775.0,STARLINK-3620,PAYLOAD,2023-10-26 04:18:36,15.0885354,0.0001625,53.2171,264.5432,95.6642,264.4535,0.00029321,4.383e-05,0.0,0 STARLINK-3620,1 51775U 22017H   23299.17958858  .00004383  00000-0  29321-3 0  9991,2 51775  53.2171 264.5432 0001625  95.6642 264.4535 15.08853540 93390,6917.839,95.437,540.828,538.58,0.0
51775.0,STARLINK-3620,PAYLOAD,2023-10-26 07:29:22,15.08854637,0.0001613,53.2172,263.9483,96.395,263.7226,0.00031115,4.669e-05,0.0,0 STARLINK-3620,1 51775U 22017H   23299.31206781  .00004669  00000-0  31115-3 0  9999,2 51775  53.2172 263.9483 0001613  96.3950 263.7226 15.08854637 91965,6917.836,95.437,540.816,538.585,0.0
51775.0,STARLINK-3620,PAYLOAD,2023-10-26 15:26:18,15.08844596,0.0001682,53.2173,262.4629,100.4865,259.6317,0.00012304,1.671e-05,0.0,0 STARLINK-3620,1 51775U 22017H   23299.64327117  .00001671  00000-0  12304-3 0  9991,2 51775  53.2173 262.4629 0001682 100.4865 259.6317 15.08844596 92015,6917.866,95.437,540.895,538.568,0.0
51775.0,STARLINK-3620,PAYLOAD,2023-10-27 04:09:23,15.08858758,0.0001449,53.2173,260.0846,98.7487,261.3669,0.00037365,5.667e-05,0.0,0 STARLINK-3620,1 51775U 22017H   23300.17318425  .00005667  00000-0  37365-3 0  9997,2 51775  53.2173 260.0846 0001449  98.7487 261.3669 15.08858758 93544,6917.823,95.436,540.69,538.686,0.0
51775.0,STARLINK-3620,PAYLOAD,2023-10-27 07:20:09,15.08862463,0.0001439,53.2164,259.4899,97.6147,262.5009,0.00051147,7.866e-05,0.0,0 STARLINK-3620,1 51775U 22017H   23300.30566211  .00007866  00000-0  51147-3 0  9997,2 51775  53.2164 259.4899 0001439  97.6147 262.5009 15.08862463 92115,6917.812,95.436,540.672,538.681,0.0
51775.0,STARLINK-3620,PAYLOAD,2023-10-27 21:38:38,15.08839485,0.0001807,53.2168,256.813,94.122,265.9979,6.1003e-05,6.83e-06,0.0,0 STARLINK-3620,1 51775U 22017H   23300.90183044  .00000683  00000-0  61003-4 0  9995,2 51775  53.2168 256.8130 0001807  94.1220 265.9979 15.08839485 92202,6917.882,95.438,540.997,538.497,0.0
51775.0,STARLINK-3620,PAYLOAD,2023-10-28 00:49:24,15.0883468,0.0001342,53.217,256.218,103.3346,256.7796,-4.7802e-06,-3.64e-06,0.0,0 STARLINK-3620,1 51775U 22017H   23301.03431070 -.00000364  00000-0 -47802-5 0  9995,2 51775  53.2170 256.2180 0001342 103.3346 256.7796 15.08834680 93679,6917.897,95.438,540.69,538.833,0.0
51775.0,STARLINK-3620,PAYLOAD,2023-10-28 13:32:29,15.08837759,0.00012,53.2168,253.8406,79.9901,280.1226,0.00023785,3.499e-05,0.0,0 STARLINK-3620,1 51775U 22017H   23301.56423445  .00003499  00000-0  23785-3 0  9992,2 51775  53.2168 253.8406 0001200  79.9901 280.1226 15.08837759 92306,6917.887,95.438,540.582,538.922,0.0
51775.0,STARLINK-3620,PAYLOAD,2023-10-28 21:29:25,15.08839053,0.0001253,53.2167,252.3535,79.2366,280.8767,0.00035202,5.319e-05,0.0,0 STARLINK-3620,1 51775U 22017H   23301.89543593  .00005319  00000-0  35202-3 0  9995,2 51775  53.2167 252.3535 0001253  79.2366 280.8767 15.08839053 92359,6917.883,95.438,540.615,538.881,0.0
51775.0,STARLINK-3620,PAYLOAD,2023-10-29 03:50:57,15.08857722,0.0001394,53.2169,251.1671,89.6481,270.467,0.00091712,0.00014345,0.0,0 STARLINK-3620,1 51775U 22017H   23302.16039235  .00014345  00000-0  91712-3 0  9996,2 51775  53.2169 251.1671 0001394  89.6481 270.4670 15.08857722 93844,6917.826,95.436,540.656,538.727,0.0
51775.0,STARLINK-3620,PAYLOAD,2023-10-29 13:23:16,15.08858043,0.0001302,53.217,249.3767,67.2679,292.8451,0.00079595,0.00012408,0.0,0 STARLINK-3620,1 51775U 22017H   23302.55782933  .00012408  00000-0  79595-3 0  9992,2 51775  53.2170 249.3767 0001302  67.2679 292.8451 15.08858043 92459,6917.825,95.436,540.591,538.79,0.0
51775.0,STARLINK-3620,PAYLOAD,2023-10-29 19:44:49,15.08849072,0.0002402,53.2177,248.1933,78.3902,281.7359,0.00034131,5.149e-05,0.0,0 STARLINK-3620,1 51775U 22017H   23302.82279489  .00005149  00000-0  34131-3 0  9990,2 51775  53.2177 248.1933 0002402  78.3902 281.7359 15.08849072 93943,6917.853,95.437,541.379,538.056,0.0
51775.0,STARLINK-3620,PAYLOAD,2023-10-30 02:06:22,15.08834299,0.000162,53.219,247.0056,88.6422,271.4756,-0.000121,-2.213e-05,0.0,0 STARLINK-3620,1 51775U 22017H   23303.08775659 -.00002213  00000-0 -12100-3 0  9992,2 51775  53.2190 247.0056 0001620  88.6422 271.4756 15.08834299 93980,6917.898,95.438,540.884,538.642,0.0
51775.0,STARLINK-3620,PAYLOAD,2023-10-30 13:14:04,15.08834866,0.0001505,53.2171,244.9225,90.9712,269.1453,-9.9879e-06,-4.47e-06,0.0,0 STARLINK-3620,1 51775U 22017H   23303.55143801 -.00000447  00000-0 -99879-5 0  9999,2 51775  53.2171 244.9225 0001505  90.9712 269.1453 15.08834866 92609,6917.896,95.438,540.802,538.72,0.0
51775.0,STARLINK-3620,PAYLOAD,2023-10-31 03:32:32,15.08836604,0.0001657,53.218,242.2436,83.7091,276.409,0.00014366,1.999e-05,0.0,0 STARLINK-3620,1 51775U 22017H   23304.14760177  .00001999  00000-0  14366-3 0  9993,2 51775  53.2180 242.2436 0001657  83.7091 276.4090 15.08836604 94143,6917.891,95.438,540.902,538.609,0.0
51775.0,STARLINK-3620,PAYLOAD,2023-10-31 13:04:51,15.08842323,0.0001709,53.2177,240.4604,83.6548,276.4639,0.00035332,5.34e-05,0.0,0 STARLINK-3620,1 51775U 22017H   23304.54504205  .00005340  00000-0  35332-3 0  9995,2 51775  53.2177 240.4604 0001709  83.6548 276.4639 15.08842323 92759,6917.873,95.437,540.921,538.556,0.0
51775.0,STARLINK-3620,PAYLOAD,2023-10-31 19:26:24,15.08839763,0.00019,53.218,239.2745,81.4685,278.6522,0.00025663,3.799e-05,0.0,0 STARLINK-3620,1 51775U 22017H   23304.81000447  .00003799  00000-0  25663-3 0  9996,2 51775  53.2180 239.2745 0001900  81.4685 278.6522 15.08839763 92799,6917.881,95.438,541.061,538.432,0.0
51775.0,STARLINK-3620,PAYLOAD,2023-11-01 12:55:38,15.08843163,0.0001557,53.217,236.0012,87.1135,273.0035,0.00024125,3.554e-05,0.0,0 STARLINK-3620,1 51775U 22017H   23305.53864236  .00003554  00000-0  24125-3 0  9991,2 51775  53.2170 236.0012 0001557  87.1135 273.0035 15.08843163 94352,6917.871,95.437,540.813,538.659,0.0
51775.0,STARLINK-3620,PAYLOAD,2023-11-01 19:17:11,15.08842422,0.0001539,53.217,234.8121,89.1843,270.9326,0.00020866,3.035e-05,0.0,0 STARLINK-3620,1 51775U 22017H   23305.80360286  .00003035  00000-0  20866-3 0  9999,2 51775  53.2170 234.8121 0001539  89.1843 270.9326 15.08842422 92946,6917.873,95.437,540.803,538.673,0.0
51775.0,STARLINK-3620,PAYLOAD,2023-11-02 01:38:43,15.0884581,0.0001668,53.2176,233.6241,82.4823,277.6359,0.00015741,2.218e-05,0.0,0 STARLINK-3620,1 51775U 22017H   23306.06856138  .00002218  00000-0  15741-3 0  9992,2 51775  53.2176 233.6241 0001668  82.4823 277.6359 15.08845810 92987,6917.863,95.437,540.882,538.574,0.0
51775.0,STARLINK-3620,PAYLOAD,2023-11-02 19:07:58,15.0884325,0.0001737,53.2171,230.3535,82.2527,277.8663,0.00011638,1.565e-05,0.0,0 STARLINK-3620,1 51775U 22017H   23306.79720214  .00001565  00000-0  11638-3 0  9992,2 51775  53.2171 230.3535 0001737  82.2527 277.8663 15.08843250 94548,6917.87,95.437,540.937,538.534,0.0
51775.0,STARLINK-3620,PAYLOAD,2023-11-02 22:18:44,15.08841789,0.000163,53.2173,229.7584,83.5035,276.6142,0.00010723,1.419e-05,0.0,0 STARLINK-3620,1 51775U 22017H   23306.92968277  .00001419  00000-0  10723-3 0  9992,2 51775  53.2173 229.7584 0001630  83.5035 276.6142 15.08841789 93112,6917.875,95.437,540.868,538.612,0.0
51775.0,STARLINK-3620,PAYLOAD,2023-11-03 01:29:30,15.08845848,0.0001607,53.2172,229.1616,91.3501,268.7675,0.0001109,1.478e-05,0.0,0 STARLINK-3620,1 51775U 22017H   23307.06215990  .00001478  00000-0  11090-3 0  9998,2 51775  53.2172 229.1616 0001607  91.3501 268.7675 15.08845848 93135,6917.863,95.437,540.839,538.616,0.0
51775.0,STARLINK-3620,PAYLOAD,2023-11-03 22:09:31,15.08841527,0.0001456,53.2169,225.2965,90.1093,270.0066,0.0001005,1.312e-05,0.0,0 STARLINK-3620,1 51775U 22017H   23307.92328173  .00001312  00000-0  10050-3 0  9993,2 51775  53.2169 225.2965 0001456  90.1093 270.0066 15.08841527 93264,6917.876,95.437,540.748,538.733,0.0
51775.0,STARLINK-3620,PAYLOAD,2023-11-04 04:31:03,15.08848676,0.0001366,53.2163,224.105,91.9293,268.1855,9.5726e-05,1.236e-05,0.0,0 STARLINK-3620,1 51775U 22017H   23308.18823701  .00001236  00000-0  95726-4 0  9998,2 51775  53.2163 224.1050 0001366  91.9293 268.1855 15.08848676 94753,6917.854,95.437,540.664,538.774,0.0
51775.0,STARLINK-3620,PAYLOAD,2023-11-04 22:00:18,15.08835673,0.0001433,53.2162,220.8318,100.9885,259.1269,-6.514e-05,-1.324e-05,0.0,0 STARLINK-3620,1 51775U 22017H   23308.91688458 -.00001324  00000-0 -65140-4 0  9994,2 51775  53.2162 220.8318 0001433 100.9885 259.1269 15.08835673 93419,6917.894,95.438,540.75,538.767,0.0
51775.0,STARLINK-3620,PAYLOAD,2023-11-05 01:11:04,15.08843231,0.000117,53.218,220.2408,80.3387,279.7737,7.2195e-05,8.61e-06,0.0,0 STARLINK-3620,1 51775U 22017H   23309.04936198  .00000861  00000-0  72195-4 0  9997,2 51775  53.2180 220.2408 0001170  80.3387 279.7737 15.08843231 94888,6917.871,95.437,540.545,538.926,0.0
51775.0,STARLINK-3620,PAYLOAD,2023-11-05 21:51:04,15.08866064,0.0001238,53.2159,216.3744,76.5704,283.5426,0.00038865,5.907e-05,0.0,0 STARLINK-3620,1 51775U 22017H   23309.91046630  .00005907  00000-0  38865-3 0  9997,2 51775  53.2159 216.3744 0001238  76.5704 283.5426 15.08866064 93569,6917.801,95.436,540.522,538.809,0.0
